[{"OBJECT_NAME":"YAOGAN-14","OBJECT_ID":"2012-021A","EPOCH":"2026-03-09T23:13:16.463424","MEAN_MOTION":15.26486019,"ECCENTRICITY":0.00056417,"INCLINATION":97.2863,"RA_OF_ASC_NODE":208.4378,"ARG_OF_PERICENTER":161.6562,"MEAN_ANOMALY":198.4882,"EPHEMERIS_TYPE":0,"CLASSIFICATION_TYPE":"U","NORAD_CAT_ID":38257,"ELEMENT_SET_NO":999,"REV_AT_EPOCH":77067,"BSTAR":0.00037795498,"MEAN_MOTION_DOT":9.798e-5,"MEAN_MOTION_DDOT":0},{"OBJECT_NAME":"STARLINK-31870","OBJECT_ID":"2024-093F","EPOCH":"2026-03-09T10:51:54.677952","MEAN_MOTION":15.27576119,"ECCENTRICITY":0.0002303,"INCLINATION":43.0031,"RA_OF_ASC_NODE":209.8538,"ARG_OF_PERICENTER":284.0443,"MEAN_ANOMALY":76.0153,"EPHEMERIS_TYPE":0,"CLASSIFICATION_TYPE":"U","NORAD_CAT_ID":59787,"ELEMENT_SET_NO":999,"REV_AT_EPOCH":10266,"BSTAR":0.00015361216,"MEAN_MOTION_DOT":3.967e-5,"MEAN_MOTION_DDOT":0}]
